CCSDS_OMM_VERS = 2.0
CREATION_DATE  = 
ORIGINATOR     = 

OBJECT_NAME    = ENVISAT
OBJECT_ID      = 2002-009A
CENTER_NAME    = EARTH
REF_FRAME      = TEME
TIME_SYSTEM    = UTC
MEAN_ELEMENT_THEORY = SGP/SGP4

EPOCH          = 2025-12-03T10:59:56.135040
MEAN_MOTION    = 14.38993618
ECCENTRICITY   = .0001165
INCLINATION    = 98.3586
RA_OF_ASC_NODE = 288.4348
ARG_OF_PERICENTER = 81.8366
MEAN_ANOMALY   = 27.4130

EPHEMERIS_TYPE = 0
CLASSIFICATION_TYPE = U
NORAD_CAT_ID   = 27386
ELEMENT_SET_NO = 999
REV_AT_EPOCH   = 24533
BSTAR          = .86159E-4
MEAN_MOTION_DOT = .223E-5
MEAN_MOTION_DDOT = 0

CCSDS_OMM_VERS = 2.0
CREATION_DATE  = 
ORIGINATOR     = 

OBJECT_NAME    = IDEFIX & ARIANE 42P R/B
OBJECT_ID      = 2002-021B
CENTER_NAME    = EARTH
REF_FRAME      = TEME
TIME_SYSTEM    = UTC
MEAN_ELEMENT_THEORY = SGP/SGP4

EPOCH          = 2025-12-03T10:09:26.182080
MEAN_MOTION    = 14.30939073
ECCENTRICITY   = .0012825
INCLINATION    = 98.5772
RA_OF_ASC_NODE = 272.2356
ARG_OF_PERICENTER = 108.7701
MEAN_ANOMALY   = 251.4875

EPHEMERIS_TYPE = 0
CLASSIFICATION_TYPE = U
NORAD_CAT_ID   = 27422
ELEMENT_SET_NO = 999
REV_AT_EPOCH   = 23025
BSTAR          = .20438E-3
MEAN_MOTION_DOT = .494E-5
MEAN_MOTION_DDOT = 0

CCSDS_OMM_VERS = 2.0
CREATION_DATE  = 
ORIGINATOR     = 

OBJECT_NAME    = AQUA
OBJECT_ID      = 2002-022A
CENTER_NAME    = EARTH
REF_FRAME      = TEME
TIME_SYSTEM    = UTC
MEAN_ELEMENT_THEORY = SGP/SGP4

EPOCH          = 2025-12-03T12:38:49.693920
MEAN_MOTION    = 14.61772454
ECCENTRICITY   = .0000757
INCLINATION    = 98.4024
RA_OF_ASC_NODE = 298.2571
ARG_OF_PERICENTER = 108.7949
MEAN_ANOMALY   = 3.7407

EPHEMERIS_TYPE = 0
CLASSIFICATION_TYPE = U
NORAD_CAT_ID   = 27424
ELEMENT_SET_NO = 999
REV_AT_EPOCH   = 25468
BSTAR          = .33803E-3
MEAN_MOTION_DOT = .1637E-4
MEAN_MOTION_DDOT = 0

CCSDS_OMM_VERS = 2.0
CREATION_DATE  = 
ORIGINATOR     = 

OBJECT_NAME    = CZ-4B R/B
OBJECT_ID      = 2002-024C
CENTER_NAME    = EARTH
REF_FRAME      = TEME
TIME_SYSTEM    = UTC
MEAN_ELEMENT_THEORY = SGP/SGP4

EPOCH          = 2025-12-03T04:02:28.864032
MEAN_MOTION    = 14.14524606
ECCENTRICITY   = .00492338
INCLINATION    = 98.9014
RA_OF_ASC_NODE = 25.9729
ARG_OF_PERICENTER = 297.6316
MEAN_ANOMALY   = 129.7768

EPHEMERIS_TYPE = 0
CLASSIFICATION_TYPE = U
NORAD_CAT_ID   = 27432
ELEMENT_SET_NO = 999
REV_AT_EPOCH   = 21559
BSTAR          = .72256289E-4
MEAN_MOTION_DOT = .95E-6
MEAN_MOTION_DDOT = 0

CCSDS_OMM_VERS = 2.0
CREATION_DATE  = 
ORIGINATOR     = 

OBJECT_NAME    = MIDORI II (ADEOS-II)
OBJECT_ID      = 2002-056A
CENTER_NAME    = EARTH
REF_FRAME      = TEME
TIME_SYSTEM    = UTC
MEAN_ELEMENT_THEORY = SGP/SGP4

EPOCH          = 2025-12-03T11:22:54.064704
MEAN_MOTION    = 14.29195466
ECCENTRICITY   = .0000317
INCLINATION    = 98.7621
RA_OF_ASC_NODE = 290.3826
ARG_OF_PERICENTER = 8.3265
MEAN_ANOMALY   = 351.7921

EPHEMERIS_TYPE = 0
CLASSIFICATION_TYPE = U
NORAD_CAT_ID   = 27597
ELEMENT_SET_NO = 999
REV_AT_EPOCH   = 19655
BSTAR          = .19293E-3
MEAN_MOTION_DOT = .445E-5
MEAN_MOTION_DDOT = 0

CCSDS_OMM_VERS = 2.0
CREATION_DATE  = 
ORIGINATOR     = 

OBJECT_NAME    = H-2A R/B
OBJECT_ID      = 2002-056E
CENTER_NAME    = EARTH
REF_FRAME      = TEME
TIME_SYSTEM    = UTC
MEAN_ELEMENT_THEORY = SGP/SGP4

EPOCH          = 2025-12-03T11:27:35.007264
MEAN_MOTION    = 14.33664094
ECCENTRICITY   = .0071508
INCLINATION    = 98.3051
RA_OF_ASC_NODE = 296.6039
ARG_OF_PERICENTER = 88.3034
MEAN_ANOMALY   = 20.7055

EPHEMERIS_TYPE = 0
CLASSIFICATION_TYPE = U
NORAD_CAT_ID   = 27601
ELEMENT_SET_NO = 999
REV_AT_EPOCH   = 20032
BSTAR          = .18998E-3
MEAN_MOTION_DOT = .501E-5
MEAN_MOTION_DDOT = 0

CCSDS_OMM_VERS = 2.0
CREATION_DATE  = 
ORIGINATOR     = 

OBJECT_NAME    = CZ-4B R/B
OBJECT_ID      = 2003-049C
CENTER_NAME    = EARTH
REF_FRAME      = TEME
TIME_SYSTEM    = UTC
MEAN_ELEMENT_THEORY = SGP/SGP4

EPOCH          = 2025-12-03T10:46:11.718336
MEAN_MOTION    = 14.54895799
ECCENTRICITY   = .0048517
INCLINATION    = 98.6780
RA_OF_ASC_NODE = 323.6621
ARG_OF_PERICENTER = 164.1229
MEAN_ANOMALY   = 196.1501

EPHEMERIS_TYPE = 0
CLASSIFICATION_TYPE = U
NORAD_CAT_ID   = 28059
ELEMENT_SET_NO = 999
REV_AT_EPOCH   = 17260
BSTAR          = .15325E-3
MEAN_MOTION_DOT = .618E-5
MEAN_MOTION_DDOT = 0

CCSDS_OMM_VERS = 2.0
CREATION_DATE  = 
ORIGINATOR     = 

OBJECT_NAME    = CZ-2C R/B
OBJECT_ID      = 2004-012C
CENTER_NAME    = EARTH
REF_FRAME      = TEME
TIME_SYSTEM    = UTC
MEAN_ELEMENT_THEORY = SGP/SGP4

EPOCH          = 2025-12-03T11:21:34.898112
MEAN_MOTION    = 15.54560252
ECCENTRICITY   = .0016991
INCLINATION    = 97.7444
RA_OF_ASC_NODE = 29.3358
ARG_OF_PERICENTER = 306.6104
MEAN_ANOMALY   = 53.3585

EPHEMERIS_TYPE = 0
CLASSIFICATION_TYPE = U
NORAD_CAT_ID   = 28222
ELEMENT_SET_NO = 999
REV_AT_EPOCH   = 18928
BSTAR          = .63896E-3
MEAN_MOTION_DOT = .42471E-3
MEAN_MOTION_DDOT = 0

CCSDS_OMM_VERS = 2.0
CREATION_DATE  = 
ORIGINATOR     = 

OBJECT_NAME    = SL-16 R/B
OBJECT_ID      = 2004-021B
CENTER_NAME    = EARTH
REF_FRAME      = TEME
TIME_SYSTEM    = UTC
MEAN_ELEMENT_THEORY = SGP/SGP4

EPOCH          = 2025-12-03T11:59:16.248768
MEAN_MOTION    = 14.14582518
ECCENTRICITY   = .0005784
INCLINATION    = 71.0022
RA_OF_ASC_NODE = 74.3552
ARG_OF_PERICENTER = 212.6539
MEAN_ANOMALY   = 147.4226

EPHEMERIS_TYPE = 0
CLASSIFICATION_TYPE = U
NORAD_CAT_ID   = 28353
ELEMENT_SET_NO = 999
REV_AT_EPOCH   = 10923
BSTAR          = -.26194E-4
MEAN_MOTION_DOT = -.98E-6
MEAN_MOTION_DDOT = 0

CCSDS_OMM_VERS = 2.0
CREATION_DATE  = 
ORIGINATOR     = 

OBJECT_NAME    = CZ-4B R/B
OBJECT_ID      = 2004-035C
CENTER_NAME    = EARTH
REF_FRAME      = TEME
TIME_SYSTEM    = UTC
MEAN_ELEMENT_THEORY = SGP/SGP4

EPOCH          = 2025-12-03T01:27:57.586752
MEAN_MOTION    = 15.27127618
ECCENTRICITY   = .00322155
INCLINATION    = 97.3622
RA_OF_ASC_NODE = 7.5360
ARG_OF_PERICENTER = 313.4375
MEAN_ANOMALY   = 46.4184

EPHEMERIS_TYPE = 0
CLASSIFICATION_TYPE = U
NORAD_CAT_ID   = 28415
ELEMENT_SET_NO = 999
REV_AT_EPOCH   = 16515
BSTAR          = .3945294E-3
MEAN_MOTION_DOT = .10584E-3
MEAN_MOTION_DDOT = 0

CCSDS_OMM_VERS = 2.0
CREATION_DATE  = 
ORIGINATOR     = 

OBJECT_NAME    = CZ-2C R/B
OBJECT_ID      = 2004-046B
CENTER_NAME    = EARTH
REF_FRAME      = TEME
TIME_SYSTEM    = UTC
MEAN_ELEMENT_THEORY = SGP/SGP4

EPOCH          = 2025-12-03T08:27:37.052352
MEAN_MOTION    = 14.26933924
ECCENTRICITY   = .0140687
INCLINATION    = 98.1982
RA_OF_ASC_NODE = 253.3142
ARG_OF_PERICENTER = 79.8457
MEAN_ANOMALY   = 281.8560

EPHEMERIS_TYPE = 0
CLASSIFICATION_TYPE = U
NORAD_CAT_ID   = 28480
ELEMENT_SET_NO = 999
REV_AT_EPOCH   = 9476
BSTAR          = .11945E-3
MEAN_MOTION_DOT = .282E-5
MEAN_MOTION_DDOT = 0

CCSDS_OMM_VERS = 2.0
CREATION_DATE  = 
ORIGINATOR     = 

OBJECT_NAME    = ARIANE 5 R/B
OBJECT_ID      = 2004-049H
CENTER_NAME    = EARTH
REF_FRAME      = TEME
TIME_SYSTEM    = UTC
MEAN_ELEMENT_THEORY = SGP/SGP4

EPOCH          = 2025-12-03T10:06:47.034144
MEAN_MOTION    = 14.84977268
ECCENTRICITY   = .0083575
INCLINATION    = 98.2520
RA_OF_ASC_NODE = 137.3688
ARG_OF_PERICENTER = 303.5649
MEAN_ANOMALY   = 55.7604

EPHEMERIS_TYPE = 0
CLASSIFICATION_TYPE = U
NORAD_CAT_ID   = 28499
ELEMENT_SET_NO = 999
REV_AT_EPOCH   = 13150
BSTAR          = .17642E-3
MEAN_MOTION_DOT = .1535E-4
MEAN_MOTION_DDOT = 0

