ENVISAT                 
1 27386U 02009A   25337.45828860  .00000223  00000+0  86159-4 0  9997
2 27386  98.3586 288.4348 0001165  81.8366  27.4130 14.38993618245335
IDEFIX & ARIANE 42P R/B 
1 27422U 02021B   25337.42321970  .00000494  00000+0  20438-3 0  9996
2 27422  98.5772 272.2356 0012825 108.7701 251.4875 14.30939073230259
AQUA                    
1 27424U 02022A   25337.52696405  .00001637  00000+0  33803-3 0  9998
2 27424  98.4024 298.2571 0000757 108.7949   3.7407 14.61772454254686
CZ-4B R/B               
1 27432U 02024C   25337.16838963  .00000095  00000+0  72256-4 0  9999
2 27432  98.9014  25.9729 0049233 297.6316 129.7768 14.14524606215595
MIDORI II (ADEOS-II)    
1 27597U 02056A   25337.47423686  .00000445  00000+0  19293-3 0  9992
2 27597  98.7621 290.3826 0000317   8.3265 351.7921 14.29195466196551
H-2A R/B                
1 27601U 02056E   25337.47748851  .00000501  00000+0  18998-3 0  9996
2 27601  98.3051 296.6039 0071508  88.3034  20.7055 14.33664094200322
CZ-4B R/B               
1 28059U 03049C   25337.44874674  .00000618  00000+0  15325-3 0  9997
2 28059  98.6780 323.6621 0048517 164.1229 196.1501 14.54895799172607
CZ-2C R/B               
1 28222U 04012C   25337.47332058  .00042471  00000+0  63896-3 0  9997
2 28222  97.7444  29.3358 0016991 306.6104  53.3585 15.54560252189281
SL-16 R/B               
1 28353U 04021B   25337.49949362 -.00000098  00000+0 -26194-4 0  9998
2 28353  71.0022  74.3552 0005784 212.6539 147.4226 14.14582518109233
CZ-4B R/B               
1 28415U 04035C   25337.06108318  .00010584  00000+0  39453-3 0  9993
2 28415  97.3622   7.5360 0032215 313.4375  46.4184 15.27127618165156
CZ-2C R/B               
1 28480U 04046B   25337.35251218  .00000282  00000+0  11945-3 0  9997
2 28480  98.1982 253.3142 0140687  79.8457 281.8560 14.26933924 94766
ARIANE 5 R/B            
1 28499U 04049H   25337.42137771  .00001535  00000+0  17642-3 0  9997
2 28499  98.2520 137.3688 0083575 303.5649  55.7604 14.84977268131507
